{
  "type": "FeatureCollection",
  "features": [
    {
      "type": "Feature",
      "properties": {
        "norad_id": 30162,
        "name": "FENGYUN 1C DEB",
        "group": "fengyun-1c-debris",
        "lat": 9.719835668313978,
        "lon": 36.77239481209003,
        "alt_km": 830.5544862265269,
        "timestamp": "2025-12-08T03:50:07.271555+00:00",
        "meta_object_name": "FENGYUN 1C DEB",
        "meta_object_id": "1999-025TT",
        "meta_epoch": "2025-12-07T03:04:56.873856",
        "meta_mean_motion": 13.5336382,
        "meta_eccentricity": 0.03136495,
        "meta_inclination": 99.4885,
        "meta_ra_of_asc_node": 37.4242,
        "meta_arg_of_pericenter": 3.8287,
        "meta_mean_anomaly": 23.2418,
        "meta_ephemeris_type": 0,
        "meta_classification_type": "U",
        "meta_norad_cat_id": 30162,
        "meta_element_set_no": 999,
        "meta_rev_at_epoch": 92585,
        "meta_bstar": 0.0035259057,
        "meta_mean_motion_dot": 3.189e-05,
        "meta_mean_motion_ddot": 0,
        "tle_line1": "1 30162U 99025TT  25341.12843604  .00003189  00000+0  35259-2 0  9996",
        "tle_line2": "2 30162  99.4885  37.4242 0313649   3.8287  23.2418 13.53363820925856"
      },
      "geometry": {
        "type": "Point",
        "coordinates": [
          36.77239481209003,
          9.719835668313978
        ]
      }
    },
    {
      "type": "Feature",
      "properties": {
        "norad_id": 30163,
        "name": "FENGYUN 1C DEB",
        "group": "fengyun-1c-debris",
        "lat": -79.45968409238047,
        "lon": -137.4927889285133,
        "alt_km": 857.3563834135593,
        "timestamp": "2025-12-08T03:50:07.271565+00:00",
        "meta_object_name": "FENGYUN 1C DEB",
        "meta_object_id": "1999-025TU",
        "meta_epoch": "2025-12-07T06:55:07.418784",
        "meta_mean_motion": 13.38754193,
        "meta_eccentricity": 0.03731966,
        "meta_inclination": 98.7011,
        "meta_ra_of_asc_node": 97.1437,
        "meta_arg_of_pericenter": 246.1678,
        "meta_mean_anomaly": 138.2802,
        "meta_ephemeris_type": 0,
        "meta_classification_type": "U",
        "meta_norad_cat_id": 30163,
        "meta_element_set_no": 999,
        "meta_rev_at_epoch": 91872,
        "meta_bstar": 0.0034475793,
        "meta_mean_motion_dot": 2.72e-05,
        "meta_mean_motion_ddot": 0,
        "tle_line1": "1 30163U 99025TU  25341.28828031  .00002720  00000+0  34476-2 0  9991",
        "tle_line2": "2 30163  98.7011  97.1437 0373196 246.1678 138.2802 13.38754193918720"
      },
      "geometry": {
        "type": "Point",
        "coordinates": [
          -137.4927889285133,
          -79.45968409238047
        ]
      }
    },
    {
      "type": "Feature",
      "properties": {
        "norad_id": 30167,
        "name": "FENGYUN 1C DEB",
        "group": "fengyun-1c-debris",
        "lat": -23.773051582404822,
        "lon": -116.94021627967018,
        "alt_km": 652.4604403440671,
        "timestamp": "2025-12-08T03:50:07.271575+00:00",
        "meta_object_name": "FENGYUN 1C DEB",
        "meta_object_id": "1999-025TY",
        "meta_epoch": "2025-12-07T05:28:13.853568",
        "meta_mean_motion": 14.48501185,
        "meta_eccentricity": 0.01440583,
        "meta_inclination": 98.9684,
        "meta_ra_of_asc_node": 66.0595,
        "meta_arg_of_pericenter": 170.916,
        "meta_mean_anomaly": 215.5515,
        "meta_ephemeris_type": 0,
        "meta_classification_type": "U",
        "meta_norad_cat_id": 30167,
        "meta_element_set_no": 999,
        "meta_rev_at_epoch": 99279,
        "meta_bstar": 0.00098292471,
        "meta_mean_motion_dot": 4.153e-05,
        "meta_mean_motion_ddot": 0,
        "tle_line1": "1 30167U 99025TY  25341.22793812  .00004153  00000+0  98292-3 0  9996",
        "tle_line2": "2 30167  98.9684  66.0595 0144058 170.9160 215.5515 14.48501185992797"
      },
      "geometry": {
        "type": "Point",
        "coordinates": [
          -116.94021627967018,
          -23.773051582404822
        ]
      }
    },
    {
      "type": "Feature",
      "properties": {
        "norad_id": 30168,
        "name": "FENGYUN 1C DEB",
        "group": "fengyun-1c-debris",
        "lat": -23.671137145880444,
        "lon": -128.19054133642334,
        "alt_km": 663.697529661009,
        "timestamp": "2025-12-08T03:50:07.271585+00:00",
        "meta_object_name": "FENGYUN 1C DEB",
        "meta_object_id": "1999-025TZ",
        "meta_epoch": "2025-12-06T17:50:33.951264",
        "meta_mean_motion": 14.52703253,
        "meta_eccentricity": 0.01007631,
        "meta_inclination": 97.3909,
        "meta_ra_of_asc_node": 53.8226,
        "meta_arg_of_pericenter": 172.7993,
        "meta_mean_anomaly": 187.4681,
        "meta_ephemeris_type": 0,
        "meta_classification_type": "U",
        "meta_norad_cat_id": 30168,
        "meta_element_set_no": 999,
        "meta_rev_at_epoch": 98224,
        "meta_bstar": 0.0038305479,
        "meta_mean_motion_dot": 0.00016785,
        "meta_mean_motion_ddot": 0,
        "tle_line1": "1 30168U 99025TZ  25340.74344851  .00016785  00000+0  38305-2 0  9990",
        "tle_line2": "2 30168  97.3909  53.8226 0100763 172.7993 187.4681 14.52703253982240"
      },
      "geometry": {
        "type": "Point",
        "coordinates": [
          -128.19054133642334,
          -23.671137145880444
        ]
      }
    },
    {
      "type": "Feature",
      "properties": {
        "norad_id": 30169,
        "name": "FENGYUN 1C DEB",
        "group": "fengyun-1c-debris",
        "lat": -60.11149334911352,
        "lon": 66.39058113839785,
        "alt_km": 623.9532748740457,
        "timestamp": "2025-12-08T03:50:07.271595+00:00",
        "meta_object_name": "FENGYUN 1C DEB",
        "meta_object_id": "1999-025UA",
        "meta_epoch": "2025-12-07T03:32:45.892032",
        "meta_mean_motion": 14.57824024,
        "meta_eccentricity": 0.02135886,
        "meta_inclination": 98.3361,
        "meta_ra_of_asc_node": 50.596,
        "meta_arg_of_pericenter": 244.3863,
        "meta_mean_anomaly": 144.055,
        "meta_ephemeris_type": 0,
        "meta_classification_type": "U",
        "meta_norad_cat_id": 30169,
        "meta_element_set_no": 999,
        "meta_rev_at_epoch": 97642,
        "meta_bstar": 0.0039618973,
        "meta_mean_motion_dot": 0.00024868,
        "meta_mean_motion_ddot": 0,
        "tle_line1": "1 30169U 99025UA  25341.14775338  .00024868  00000+0  39619-2 0  9994",
        "tle_line2": "2 30169  98.3361  50.5960 0213588 244.3863 144.0550 14.57824024976427"
      },
      "geometry": {
        "type": "Point",
        "coordinates": [
          66.39058113839785,
          -60.11149334911352
        ]
      }
    },
    {
      "type": "Feature",
      "properties": {
        "norad_id": 30170,
        "name": "FENGYUN 1C DEB",
        "group": "fengyun-1c-debris",
        "lat": 6.190285904606447,
        "lon": 150.3084515515815,
        "alt_km": 917.2301447322416,
        "timestamp": "2025-12-08T03:50:07.271604+00:00",
        "meta_object_name": "FENGYUN 1C DEB",
        "meta_object_id": "1999-025UB",
        "meta_epoch": "2025-12-06T10:34:57.883008",
        "meta_mean_motion": 14.00294421,
        "meta_eccentricity": 0.00768961,
        "meta_inclination": 98.8484,
        "meta_ra_of_asc_node": 327.6771,
        "meta_arg_of_pericenter": 292.4406,
        "meta_mean_anomaly": 221.8759,
        "meta_ephemeris_type": 0,
        "meta_classification_type": "U",
        "meta_norad_cat_id": 30170,
        "meta_element_set_no": 999,
        "meta_rev_at_epoch": 96327,
        "meta_bstar": 0.00087173088,
        "meta_mean_motion_dot": 1.279e-05,
        "meta_mean_motion_ddot": 0,
        "tle_line1": "1 30170U 99025UB  25340.44094772  .00001279  00000+0  87173-3 0  9994",
        "tle_line2": "2 30170  98.8484 327.6771 0076896 292.4406 221.8759 14.00294421963278"
      },
      "geometry": {
        "type": "Point",
        "coordinates": [
          150.3084515515815,
          6.190285904606447
        ]
      }
    },
    {
      "type": "Feature",
      "properties": {
        "norad_id": 30171,
        "name": "FENGYUN 1C DEB",
        "group": "fengyun-1c-debris",
        "lat": 80.81523500351186,
        "lon": 86.27817459622797,
        "alt_km": 1030.7765989331092,
        "timestamp": "2025-12-08T03:50:07.271614+00:00",
        "meta_object_name": "FENGYUN 1C DEB",
        "meta_object_id": "1999-025UC",
        "meta_epoch": "2025-12-07T01:35:35.583648",
        "meta_mean_motion": 13.96852435,
        "meta_eccentricity": 0.01845493,
        "meta_inclination": 98.3989,
        "meta_ra_of_asc_node": 199.2553,
        "meta_arg_of_pericenter": 283.3769,
        "meta_mean_anomaly": 74.6881,
        "meta_ephemeris_type": 0,
        "meta_classification_type": "U",
        "meta_norad_cat_id": 30171,
        "meta_element_set_no": 999,
        "meta_rev_at_epoch": 96191,
        "meta_bstar": 0.00034455947,
        "meta_mean_motion_dot": 5.13e-06,
        "meta_mean_motion_ddot": 0,
        "tle_line1": "1 30171U 99025UC  25341.06638407  .00000513  00000+0  34456-3 0  9999",
        "tle_line2": "2 30171  98.3989 199.2553 0184549 283.3769  74.6881 13.96852435961919"
      },
      "geometry": {
        "type": "Point",
        "coordinates": [
          86.27817459622797,
          80.81523500351186
        ]
      }
    }
  ]
}